{
  "type": "FeatureCollection",
  "features": [
    {
      "type": "Feature",
      "properties": {
        "norad_id": 26766,
        "name": "INTELSAT 10 (IS-10)",
        "group": "intelsat",
        "lat": 2.1888804770028365,
        "lon": -133.50155145422937,
        "alt_km": 36105.1280079203,
        "timestamp": "2025-12-08T23:34:03.637085+00:00",
        "meta_object_name": "INTELSAT 10 (IS-10)",
        "meta_object_id": "2001-019A",
        "meta_epoch": "2025-12-08T12:50:38.848704",
        "meta_mean_motion": 0.99078973,
        "meta_eccentricity": 0.00078528,
        "meta_inclination": 8.6199,
        "meta_ra_of_asc_node": 61.1985,
        "meta_arg_of_pericenter": 221.9209,
        "meta_mean_anomaly": 143.9126,
        "meta_ephemeris_type": 0,
        "meta_classification_type": "U",
        "meta_norad_cat_id": 26766,
        "meta_element_set_no": 999,
        "meta_rev_at_epoch": 4369,
        "meta_bstar": 0,
        "meta_mean_motion_dot": -2.74e-06,
        "meta_mean_motion_ddot": 0,
        "tle_line1": "1 26766U 01019A   25342.53517186 -.00000274  00000+0  00000+0 0  9992",
        "tle_line2": "2 26766   8.6199  61.1985 0007852 221.9209 143.9126  0.99078973 43699"
      },
      "geometry": {
        "type": "Point",
        "coordinates": [
          -133.50155145422937,
          2.1888804770028365
        ]
      }
    },
    {
      "type": "Feature",
      "properties": {
        "norad_id": 26900,
        "name": "INTELSAT 902 (IS-902)",
        "group": "intelsat",
        "lat": -4.47519936636928,
        "lon": 21.48603650216349,
        "alt_km": 35800.03159472742,
        "timestamp": "2025-12-08T23:34:03.637109+00:00",
        "meta_object_name": "INTELSAT 902 (IS-902)",
        "meta_object_id": "2001-039A",
        "meta_epoch": "2025-12-01T16:59:59.311968",
        "meta_mean_motion": 1.00270327,
        "meta_eccentricity": 0.00043097,
        "meta_inclination": 5.6187,
        "meta_ra_of_asc_node": 74.2002,
        "meta_arg_of_pericenter": 175.119,
        "meta_mean_anomaly": 26.3816,
        "meta_ephemeris_type": 0,
        "meta_classification_type": "U",
        "meta_norad_cat_id": 26900,
        "meta_element_set_no": 999,
        "meta_rev_at_epoch": 8871,
        "meta_bstar": 0,
        "meta_mean_motion_dot": -2.63e-06,
        "meta_mean_motion_ddot": 0,
        "tle_line1": "1 26900U 01039A   25335.70832537 -.00000263  00000+0  00000+0 0  9993",
        "tle_line2": "2 26900   5.6187  74.2002 0004309 175.1190  26.3816  1.00270327 88713"
      },
      "geometry": {
        "type": "Point",
        "coordinates": [
          21.48603650216349,
          -4.47519936636928
        ]
      }
    },
    {
      "type": "Feature",
      "properties": {
        "norad_id": 27380,
        "name": "INTELSAT 904 (IS-904)",
        "group": "intelsat",
        "lat": -3.3478747953012835,
        "lon": 40.13105814270025,
        "alt_km": 35790.6266779907,
        "timestamp": "2025-12-08T23:34:03.637126+00:00",
        "meta_object_name": "INTELSAT 904 (IS-904)",
        "meta_object_id": "2002-007A",
        "meta_epoch": "2025-12-08T15:09:58.269024",
        "meta_mean_motion": 1.00268358,
        "meta_eccentricity": 0.0001612,
        "meta_inclination": 6.4433,
        "meta_ra_of_asc_node": 71.4765,
        "meta_arg_of_pericenter": 211.5706,
        "meta_mean_anomaly": 350.5417,
        "meta_ephemeris_type": 0,
        "meta_classification_type": "U",
        "meta_norad_cat_id": 27380,
        "meta_element_set_no": 999,
        "meta_rev_at_epoch": 8717,
        "meta_bstar": 0,
        "meta_mean_motion_dot": -2.26e-06,
        "meta_mean_motion_ddot": 0,
        "tle_line1": "1 27380U 02007A   25342.63192441 -.00000226  00000+0  00000+0 0  9994",
        "tle_line2": "2 27380   6.4433  71.4765 0001612 211.5706 350.5417  1.00268358 87175"
      },
      "geometry": {
        "type": "Point",
        "coordinates": [
          40.13105814270025,
          -3.3478747953012835
        ]
      }
    },
    {
      "type": "Feature",
      "properties": {
        "norad_id": 27426,
        "name": "DIRECTV 5 (TEMPO 1)",
        "group": "intelsat",
        "lat": -3.9486225157797885,
        "lon": -38.6541046916906,
        "alt_km": 35774.83473674189,
        "timestamp": "2025-12-08T23:34:03.637139+00:00",
        "meta_object_name": "DIRECTV 5 (TEMPO 1)",
        "meta_object_id": "2002-023A",
        "meta_epoch": "2025-12-08T12:16:36.573024",
        "meta_mean_motion": 1.0027186,
        "meta_eccentricity": 0.00039183,
        "meta_inclination": 4.3913,
        "meta_ra_of_asc_node": 77.7003,
        "meta_arg_of_pericenter": 198.8983,
        "meta_mean_anomaly": 234.9531,
        "meta_ephemeris_type": 0,
        "meta_classification_type": "U",
        "meta_norad_cat_id": 27426,
        "meta_element_set_no": 999,
        "meta_rev_at_epoch": 8621,
        "meta_bstar": 0,
        "meta_mean_motion_dot": -5.6e-07,
        "meta_mean_motion_ddot": 0,
        "tle_line1": "1 27426U 02023A   25342.51153441 -.00000056  00000+0  00000+0 0  9998",
        "tle_line2": "2 27426   4.3913  77.7003 0003918 198.8983 234.9531  1.00271860 86213"
      },
      "geometry": {
        "type": "Point",
        "coordinates": [
          -38.6541046916906,
          -3.9486225157797885
        ]
      }
    },
    {
      "type": "Feature",
      "properties": {
        "norad_id": 27438,
        "name": "INTELSAT 905 (IS-905)",
        "group": "intelsat",
        "lat": -4.230862545222877,
        "lon": -65.86145052034082,
        "alt_km": 35776.3709616784,
        "timestamp": "2025-12-08T23:34:03.637153+00:00",
        "meta_object_name": "INTELSAT 905 (IS-905)",
        "meta_object_id": "2002-027A",
        "meta_epoch": "2025-12-08T12:00:17.267040",
        "meta_mean_motion": 1.00271271,
        "meta_eccentricity": 0.00028954,
        "meta_inclination": 6.2751,
        "meta_ra_of_asc_node": 72.1034,
        "meta_arg_of_pericenter": 189.9537,
        "meta_mean_anomaly": 218.3132,
        "meta_ephemeris_type": 0,
        "meta_classification_type": "U",
        "meta_norad_cat_id": 27438,
        "meta_element_set_no": 999,
        "meta_rev_at_epoch": 4945,
        "meta_bstar": 0,
        "meta_mean_motion_dot": 9.4e-07,
        "meta_mean_motion_ddot": 0,
        "tle_line1": "1 27438U 02027A   25342.50019985  .00000094  00000+0  00000+0 0  9999",
        "tle_line2": "2 27438   6.2751  72.1034 0002895 189.9537 218.3132  1.00271271 49453"
      },
      "geometry": {
        "type": "Point",
        "coordinates": [
          -65.86145052034082,
          -4.230862545222877
        ]
      }
    },
    {
      "type": "Feature",
      "properties": {
        "norad_id": 27445,
        "name": "GALAXY 3C (G-3C)",
        "group": "intelsat",
        "lat": -3.164066843503575,
        "lon": -23.38315435973726,
        "alt_km": 35791.15743041897,
        "timestamp": "2025-12-08T23:34:03.637180+00:00",
        "meta_object_name": "GALAXY 3C (G-3C)",
        "meta_object_id": "2002-030A",
        "meta_epoch": "2025-12-08T12:25:42.773952",
        "meta_mean_motion": 1.00270867,
        "meta_eccentricity": 0.00011389,
        "meta_inclination": 3.2536,
        "meta_ra_of_asc_node": 80.5473,
        "meta_arg_of_pericenter": 99.4242,
        "meta_mean_anomaly": 349.1178,
        "meta_ephemeris_type": 0,
        "meta_classification_type": "U",
        "meta_norad_cat_id": 27445,
        "meta_element_set_no": 999,
        "meta_rev_at_epoch": 4458,
        "meta_bstar": 0,
        "meta_mean_motion_dot": -1.51e-06,
        "meta_mean_motion_ddot": 0,
        "tle_line1": "1 27445U 02030A   25342.51785618 -.00000151  00000+0  00000+0 0  9990",
        "tle_line2": "2 27445   3.2536  80.5473 0001138  99.4242 349.1178  1.00270867 44588"
      },
      "geometry": {
        "type": "Point",
        "coordinates": [
          -23.38315435973726,
          -3.164066843503575
        ]
      }
    },
    {
      "type": "Feature",
      "properties": {
        "norad_id": 27513,
        "name": "INTELSAT 906 (IS-906)",
        "group": "intelsat",
        "lat": 4.632139877678306,
        "lon": 135.4714337266449,
        "alt_km": 35801.93732941064,
        "timestamp": "2025-12-08T23:34:03.637194+00:00",
        "meta_object_name": "INTELSAT 906 (IS-906)",
        "meta_object_id": "2002-041A",
        "meta_epoch": "2025-12-08T08:46:20.009568",
        "meta_mean_motion": 1.00270756,
        "meta_eccentricity": 0.00060753,
        "meta_inclination": 5.3176,
        "meta_ra_of_asc_node": 75.2836,
        "meta_arg_of_pericenter": 189.3726,
        "meta_mean_anomaly": 8.4369,
        "meta_ephemeris_type": 0,
        "meta_classification_type": "U",
        "meta_norad_cat_id": 27513,
        "meta_element_set_no": 999,
        "meta_rev_at_epoch": 8511,
        "meta_bstar": 0,
        "meta_mean_motion_dot": 1.4e-07,
        "meta_mean_motion_ddot": 0,
        "tle_line1": "1 27513U 02041A   25342.36550937  .00000014  00000+0  00000+0 0  9992",
        "tle_line2": "2 27513   5.3176  75.2836 0006075 189.3726   8.4369  1.00270756 85110"
      },
      "geometry": {
        "type": "Point",
        "coordinates": [
          135.4714337266449,
          4.632139877678306
        ]
      }
    }
  ]
}